{
  "type": "FeatureCollection",
  "features": [
    {
      "type": "Feature",
      "properties": {
        "norad_id": 46805,
        "name": "COSMOS 2547 (705K)",
        "group": "glo-ops",
        "lat": 28.981995594837176,
        "lon": -146.3877740904923,
        "alt_km": 19141.804134600774,
        "timestamp": "2025-12-23T11:34:48.425844+00:00",
        "meta_object_name": "COSMOS 2547 (705K)",
        "meta_object_id": "2020-075A",
        "meta_epoch": "2025-12-22T23:18:06.854688",
        "meta_mean_motion": 2.13100221,
        "meta_eccentricity": 0.0006107,
        "meta_inclination": 64.5968,
        "meta_ra_of_asc_node": 198.3547,
        "meta_arg_of_pericenter": 227.5279,
        "meta_mean_anomaly": 132.4843,
        "meta_ephemeris_type": 0,
        "meta_classification_type": "U",
        "meta_norad_cat_id": 46805,
        "meta_element_set_no": 999,
        "meta_rev_at_epoch": 4015,
        "meta_bstar": 0,
        "meta_mean_motion_dot": 9.5e-07,
        "meta_mean_motion_ddot": 0,
        "tle_line1": "1 46805U 20075A   25356.97091267  .00000095  00000+0  00000+0 0  9991",
        "tle_line2": "2 46805  64.5968 198.3547 0006107 227.5279 132.4843  2.13100221 40155"
      },
      "geometry": {
        "type": "Point",
        "coordinates": [
          -146.3877740904923,
          28.981995594837176
        ]
      }
    },
    {
      "type": "Feature",
      "properties": {
        "norad_id": 52984,
        "name": "COSMOS 2557 (706K)",
        "group": "glo-ops",
        "lat": -64.04894396881369,
        "lon": -139.51543831909245,
        "alt_km": 19102.76853343012,
        "timestamp": "2025-12-23T11:34:48.425854+00:00",
        "meta_object_name": "COSMOS 2557 (706K)",
        "meta_object_id": "2022-075A",
        "meta_epoch": "2025-12-23T03:16:01.943040",
        "meta_mean_motion": 2.13102047,
        "meta_eccentricity": 0.0013536,
        "meta_inclination": 64.4039,
        "meta_ra_of_asc_node": 320.6863,
        "meta_arg_of_pericenter": 278.4339,
        "meta_mean_anomaly": 81.4107,
        "meta_ephemeris_type": 0,
        "meta_classification_type": "U",
        "meta_norad_cat_id": 52984,
        "meta_element_set_no": 999,
        "meta_rev_at_epoch": 2696,
        "meta_bstar": 0,
        "meta_mean_motion_dot": -3.9e-07,
        "meta_mean_motion_ddot": 0,
        "tle_line1": "1 52984U 22075A   25357.13613360 -.00000039  00000+0  00000+0 0  9990",
        "tle_line2": "2 52984  64.4039 320.6863 0013536 278.4339  81.4107  2.13102047 26962"
      },
      "geometry": {
        "type": "Point",
        "coordinates": [
          -139.51543831909245,
          -64.04894396881369
        ]
      }
    },
    {
      "type": "Feature",
      "properties": {
        "norad_id": 54031,
        "name": "COSMOS 2559 (707K)",
        "group": "glo-ops",
        "lat": 39.055904638414106,
        "lon": -16.350966150398076,
        "alt_km": 19150.16124985242,
        "timestamp": "2025-12-23T11:34:48.425864+00:00",
        "meta_object_name": "COSMOS 2559 (707K)",
        "meta_object_id": "2022-130A",
        "meta_epoch": "2025-12-22T22:55:41.344032",
        "meta_mean_motion": 2.131013,
        "meta_eccentricity": 0.0011532,
        "meta_inclination": 64.3764,
        "meta_ra_of_asc_node": 320.7818,
        "meta_arg_of_pericenter": 191.7827,
        "meta_mean_anomaly": 168.1884,
        "meta_ephemeris_type": 0,
        "meta_classification_type": "U",
        "meta_norad_cat_id": 54031,
        "meta_element_set_no": 999,
        "meta_rev_at_epoch": 2493,
        "meta_bstar": 0,
        "meta_mean_motion_dot": -4e-07,
        "meta_mean_motion_ddot": 0,
        "tle_line1": "1 54031U 22130A   25356.95533963 -.00000040  00000+0  00000+0 0  9998",
        "tle_line2": "2 54031  64.3764 320.7818 0011532 191.7827 168.1884  2.13101300 24936"
      },
      "geometry": {
        "type": "Point",
        "coordinates": [
          -16.350966150398076,
          39.055904638414106
        ]
      }
    },
    {
      "type": "Feature",
      "properties": {
        "norad_id": 54377,
        "name": "COSMOS 2564 (761)",
        "group": "glo-ops",
        "lat": 14.475131562156774,
        "lon": 11.541362793078168,
        "alt_km": 19111.754315377806,
        "timestamp": "2025-12-23T11:34:48.425874+00:00",
        "meta_object_name": "COSMOS 2564 (761)",
        "meta_object_id": "2022-161A",
        "meta_epoch": "2025-12-22T19:11:15.319968",
        "meta_mean_motion": 2.13102042,
        "meta_eccentricity": 0.0008546,
        "meta_inclination": 64.7388,
        "meta_ra_of_asc_node": 198.5647,
        "meta_arg_of_pericenter": 203.7015,
        "meta_mean_anomaly": 156.3241,
        "meta_ephemeris_type": 0,
        "meta_classification_type": "U",
        "meta_norad_cat_id": 54377,
        "meta_element_set_no": 999,
        "meta_rev_at_epoch": 2387,
        "meta_bstar": 0,
        "meta_mean_motion_dot": 9.5e-07,
        "meta_mean_motion_ddot": 0,
        "tle_line1": "1 54377U 22161A   25356.79948287  .00000095  00000+0  00000+0 0  9995",
        "tle_line2": "2 54377  64.7388 198.5647 0008546 203.7015 156.3241  2.13102042 23872"
      },
      "geometry": {
        "type": "Point",
        "coordinates": [
          11.541362793078168,
          14.475131562156774
        ]
      }
    },
    {
      "type": "Feature",
      "properties": {
        "norad_id": 57517,
        "name": "COSMOS 2569 (703K)",
        "group": "glo-ops",
        "lat": 23.80759825271674,
        "lon": -113.18747429939542,
        "alt_km": 19146.147162114397,
        "timestamp": "2025-12-23T11:34:48.425884+00:00",
        "meta_object_name": "COSMOS 2569 (703K)",
        "meta_object_id": "2023-114A",
        "meta_epoch": "2025-12-22T08:14:44.480832",
        "meta_mean_motion": 2.13104025,
        "meta_eccentricity": 0.00108594,
        "meta_inclination": 65.199,
        "meta_ra_of_asc_node": 78.589,
        "meta_arg_of_pericenter": 287.0596,
        "meta_mean_anomaly": 72.8655,
        "meta_ephemeris_type": 0,
        "meta_classification_type": "U",
        "meta_norad_cat_id": 57517,
        "meta_element_set_no": 999,
        "meta_rev_at_epoch": 1849,
        "meta_bstar": 0,
        "meta_mean_motion_dot": -3e-08,
        "meta_mean_motion_ddot": 0,
        "tle_line1": "1 57517U 23114A   25356.34357038 -.00000003  00000+0  00000+0 0  9992",
        "tle_line2": "2 57517  65.1990  78.5890 0010859 287.0596  72.8655  2.13104025 18497"
      },
      "geometry": {
        "type": "Point",
        "coordinates": [
          -113.18747429939542,
          23.80759825271674
        ]
      }
    },
    {
      "type": "Feature",
      "properties": {
        "norad_id": 63130,
        "name": "COSMOS 2584 (704K)",
        "group": "glo-ops",
        "lat": -52.25353641342961,
        "lon": -64.17519328511482,
        "alt_km": 19117.260576428158,
        "timestamp": "2025-12-23T11:34:48.425894+00:00",
        "meta_object_name": "COSMOS 2584 (704K)",
        "meta_object_id": "2025-042A",
        "meta_epoch": "2025-12-22T05:31:29.288640",
        "meta_mean_motion": 2.1310305,
        "meta_eccentricity": 0.00077501,
        "meta_inclination": 64.9809,
        "meta_ra_of_asc_node": 78.8228,
        "meta_arg_of_pericenter": 219.7586,
        "meta_mean_anomaly": 140.2275,
        "meta_ephemeris_type": 0,
        "meta_classification_type": "U",
        "meta_norad_cat_id": 63130,
        "meta_element_set_no": 999,
        "meta_rev_at_epoch": 627,
        "meta_bstar": 0,
        "meta_mean_motion_dot": -4e-08,
        "meta_mean_motion_ddot": 0,
        "tle_line1": "1 63130U 25042A   25356.23020010 -.00000004  00000+0  00000+0 0  9998",
        "tle_line2": "2 63130  64.9809  78.8228 0007750 219.7586 140.2275  2.13103050  6274"
      },
      "geometry": {
        "type": "Point",
        "coordinates": [
          -64.17519328511482,
          -52.25353641342961
        ]
      }
    },
    {
      "type": "Feature",
      "properties": {
        "norad_id": 65590,
        "name": "COSMOS 2596 (708K)",
        "group": "glo-ops",
        "lat": -0.7073475753478203,
        "lon": -39.24831136381355,
        "alt_km": 19108.405678905365,
        "timestamp": "2025-12-23T11:34:48.425904+00:00",
        "meta_object_name": "COSMOS 2596 (708K)",
        "meta_object_id": "2025-206B",
        "meta_epoch": "2025-12-23T03:22:08.901120",
        "meta_mean_motion": 2.13100363,
        "meta_eccentricity": 0.0014093,
        "meta_inclination": 64.7387,
        "meta_ra_of_asc_node": 321.1139,
        "meta_arg_of_pericenter": 307.3847,
        "meta_mean_anomaly": 149.2418,
        "meta_ephemeris_type": 0,
        "meta_classification_type": "U",
        "meta_norad_cat_id": 65590,
        "meta_element_set_no": 999,
        "meta_rev_at_epoch": 216,
        "meta_bstar": 0,
        "meta_mean_motion_dot": -3.8e-07,
        "meta_mean_motion_ddot": 0,
        "tle_line1": "1 65590U 25206B   25357.14038080 -.00000038  00000+0  00000+0 0  9996",
        "tle_line2": "2 65590  64.7387 321.1139 0014093 307.3847 149.2418  2.13100363  2168"
      },
      "geometry": {
        "type": "Point",
        "coordinates": [
          -39.24831136381355,
          -0.7073475753478203
        ]
      }
    }
  ]
}